{
  "norad_id": 62453,
  "name": "STARLINK-32690",
  "history": [
    {
      "epoch": "2026-03-28T17:07:15.676032",
      "apogee_km": 475.90625709267897,
      "perigee_km": 474.46020652376683,
      "latitude_deg": -4.701474571010489,
      "longitude_deg": 133.784084480023,
      "semi_major_axis_km": 6853.320231808222,
      "eccentricity": 0.0001055,
      "inclination_deg": 53.1582,
      "raan_deg": 246.751,
      "arg_perigee_deg": 83.1216,
      "mean_anomaly_deg": 276.9905,
      "mean_motion_rev_day": 15.30210663
    }
  ]
}